CCSDS_OMM_VERS = 2.0
CREATION_DATE  = 
ORIGINATOR     = 

OBJECT_NAME    = CYGNUS NG-23
OBJECT_ID      = 2025-208A
CENTER_NAME    = EARTH
REF_FRAME      = TEME
TIME_SYSTEM    = UTC
MEAN_ELEMENT_THEORY = SGP/SGP4

EPOCH          = 2025-12-30T12:47:17.579904
MEAN_MOTION    = 15.48944140
ECCENTRICITY   = .00074839
INCLINATION    = 51.6331
RA_OF_ASC_NODE = 54.3560
ARG_OF_PERICENTER = 320.1003
MEAN_ANOMALY   = 39.9435

EPHEMERIS_TYPE = 0
CLASSIFICATION_TYPE = U
NORAD_CAT_ID   = 65616
ELEMENT_SET_NO = 999
REV_AT_EPOCH   = 22
BSTAR          = .30360943E-3
MEAN_MOTION_DOT = .16291E-3
MEAN_MOTION_DDOT = 0

CCSDS_OMM_VERS = 2.0
CREATION_DATE  = 
ORIGINATOR     = 

OBJECT_NAME    = DRAGONFLY
OBJECT_ID      = 1998-067XH
CENTER_NAME    = EARTH
REF_FRAME      = TEME
TIME_SYSTEM    = UTC
MEAN_ELEMENT_THEORY = SGP/SGP4

EPOCH          = 2025-12-30T09:02:49.679232
MEAN_MOTION    = 15.78913616
ECCENTRICITY   = .00086793
INCLINATION    = 51.6255
RA_OF_ASC_NODE = 45.0298
ARG_OF_PERICENTER = 20.0434
MEAN_ANOMALY   = 340.0906

EPHEMERIS_TYPE = 0
CLASSIFICATION_TYPE = U
NORAD_CAT_ID   = 65729
ELEMENT_SET_NO = 999
REV_AT_EPOCH   = 1594
BSTAR          = .16177888E-2
MEAN_MOTION_DOT = .302916E-2
MEAN_MOTION_DDOT = 0

CCSDS_OMM_VERS = 2.0
CREATION_DATE  = 
ORIGINATOR     = 

OBJECT_NAME    = 1998-067XK
OBJECT_ID      = 1998-067XK
CENTER_NAME    = EARTH
REF_FRAME      = TEME
TIME_SYSTEM    = UTC
MEAN_ELEMENT_THEORY = SGP/SGP4

EPOCH          = 2025-12-30T07:56:00.398688
MEAN_MOTION    = 15.69469801
ECCENTRICITY   = .00052083
INCLINATION    = 51.6295
RA_OF_ASC_NODE = 47.7574
ARG_OF_PERICENTER = 354.7984
MEAN_ANOMALY   = 5.2958

EPHEMERIS_TYPE = 0
CLASSIFICATION_TYPE = U
NORAD_CAT_ID   = 65731
ELEMENT_SET_NO = 999
REV_AT_EPOCH   = 1590
BSTAR          = .1186658E-2
MEAN_MOTION_DOT = .144563E-2
MEAN_MOTION_DDOT = 0

CCSDS_OMM_VERS = 2.0
CREATION_DATE  = 
ORIGINATOR     = 

OBJECT_NAME    = RSP-03
OBJECT_ID      = 1998-067XL
CENTER_NAME    = EARTH
REF_FRAME      = TEME
TIME_SYSTEM    = UTC
MEAN_ELEMENT_THEORY = SGP/SGP4

EPOCH          = 2025-12-30T08:38:33.015840
MEAN_MOTION    = 15.73698576
ECCENTRICITY   = .00063556
INCLINATION    = 51.6265
RA_OF_ASC_NODE = 46.4360
ARG_OF_PERICENTER = 1.6609
MEAN_ANOMALY   = 358.4410

EPHEMERIS_TYPE = 0
CLASSIFICATION_TYPE = U
NORAD_CAT_ID   = 65732
ELEMENT_SET_NO = 999
REV_AT_EPOCH   = 1593
BSTAR          = .13918321E-2
MEAN_MOTION_DOT = .204382E-2
MEAN_MOTION_DDOT = 0

CCSDS_OMM_VERS = 2.0
CREATION_DATE  = 
ORIGINATOR     = 

OBJECT_NAME    = GHS-01
OBJECT_ID      = 1998-067XM
CENTER_NAME    = EARTH
REF_FRAME      = TEME
TIME_SYSTEM    = UTC
MEAN_ELEMENT_THEORY = SGP/SGP4

EPOCH          = 2025-12-30T08:21:52.063200
MEAN_MOTION    = 15.84202469
ECCENTRICITY   = .0009807
INCLINATION    = 51.6270
RA_OF_ASC_NODE = 44.0965
ARG_OF_PERICENTER = 24.2416
MEAN_ANOMALY   = 335.9046

EPHEMERIS_TYPE = 0
CLASSIFICATION_TYPE = U
NORAD_CAT_ID   = 65733
ELEMENT_SET_NO = 999
REV_AT_EPOCH   = 1596
BSTAR          = .18873592E-2
MEAN_MOTION_DOT = .460338E-2
MEAN_MOTION_DDOT = 0

CCSDS_OMM_VERS = 2.0
CREATION_DATE  = 
ORIGINATOR     = 

OBJECT_NAME    = YOTSUBA-KULOVER
OBJECT_ID      = 1998-067XN
CENTER_NAME    = EARTH
REF_FRAME      = TEME
TIME_SYSTEM    = UTC
MEAN_ELEMENT_THEORY = SGP/SGP4

EPOCH          = 2025-12-30T12:19:50.299968
MEAN_MOTION    = 15.62050182
ECCENTRICITY   = .00031238
INCLINATION    = 51.6297
RA_OF_ASC_NODE = 50.4832
ARG_OF_PERICENTER = 27.4443
MEAN_ANOMALY   = 332.6715

EPHEMERIS_TYPE = 0
CLASSIFICATION_TYPE = U
NORAD_CAT_ID   = 65941
ELEMENT_SET_NO = 999
REV_AT_EPOCH   = 1263
BSTAR          = .10929188E-2
MEAN_MOTION_DOT = .98167E-3
MEAN_MOTION_DDOT = 0

CCSDS_OMM_VERS = 2.0
CREATION_DATE  = 
ORIGINATOR     = 

OBJECT_NAME    = BOTAN
OBJECT_ID      = 1998-067XP
CENTER_NAME    = EARTH
REF_FRAME      = TEME
TIME_SYSTEM    = UTC
MEAN_ELEMENT_THEORY = SGP/SGP4

EPOCH          = 2025-12-30T12:52:21.207648
MEAN_MOTION    = 15.67032425
ECCENTRICITY   = .0004053
INCLINATION    = 51.6282
RA_OF_ASC_NODE = 49.1302
ARG_OF_PERICENTER = 14.4152
MEAN_ANOMALY   = 345.6959

EPHEMERIS_TYPE = 0
CLASSIFICATION_TYPE = U
NORAD_CAT_ID   = 65942
ELEMENT_SET_NO = 999
REV_AT_EPOCH   = 1265
BSTAR          = .15144377E-2
MEAN_MOTION_DOT = .167515E-2
MEAN_MOTION_DDOT = 0

CCSDS_OMM_VERS = 2.0
CREATION_DATE  = 
ORIGINATOR     = 

OBJECT_NAME    = E-KAGAKU-1
OBJECT_ID      = 1998-067XQ
CENTER_NAME    = EARTH
REF_FRAME      = TEME
TIME_SYSTEM    = UTC
MEAN_ELEMENT_THEORY = SGP/SGP4

EPOCH          = 2025-12-30T12:19:50.906496
MEAN_MOTION    = 15.62088967
ECCENTRICITY   = .00018685
INCLINATION    = 51.6307
RA_OF_ASC_NODE = 50.4889
ARG_OF_PERICENTER = 10.3780
MEAN_ANOMALY   = 349.7252

EPHEMERIS_TYPE = 0
CLASSIFICATION_TYPE = U
NORAD_CAT_ID   = 65943
ELEMENT_SET_NO = 999
REV_AT_EPOCH   = 1263
BSTAR          = .11400228E-2
MEAN_MOTION_DOT = .102622E-2
MEAN_MOTION_DDOT = 0

CCSDS_OMM_VERS = 2.0
CREATION_DATE  = 
ORIGINATOR     = 

OBJECT_NAME    = HRC MONOBLOCK CAMERA
OBJECT_ID      = 1998-067XR
CENTER_NAME    = EARTH
REF_FRAME      = TEME
TIME_SYSTEM    = UTC
MEAN_ELEMENT_THEORY = SGP/SGP4

EPOCH          = 2025-12-30T10:56:09.311712
MEAN_MOTION    = 15.55440623
ECCENTRICITY   = .00016406
INCLINATION    = 51.6310
RA_OF_ASC_NODE = 53.0923
ARG_OF_PERICENTER = 279.1316
MEAN_ANOMALY   = 80.9489

EPHEMERIS_TYPE = 0
CLASSIFICATION_TYPE = U
NORAD_CAT_ID   = 66052
ELEMENT_SET_NO = 999
REV_AT_EPOCH   = 1159
BSTAR          = .64636278E-3
MEAN_MOTION_DOT = .44662E-3
MEAN_MOTION_DDOT = 0

CCSDS_OMM_VERS = 2.0
CREATION_DATE  = 
ORIGINATOR     = 

OBJECT_NAME    = HTV-X1
OBJECT_ID      = 2025-241A
CENTER_NAME    = EARTH
REF_FRAME      = TEME
TIME_SYSTEM    = UTC
MEAN_ELEMENT_THEORY = SGP/SGP4

EPOCH          = 2025-12-30T12:47:17.579904
MEAN_MOTION    = 15.48944140
ECCENTRICITY   = .00074839
INCLINATION    = 51.6331
RA_OF_ASC_NODE = 54.3560
ARG_OF_PERICENTER = 320.1003
MEAN_ANOMALY   = 39.9435

EPHEMERIS_TYPE = 0
CLASSIFICATION_TYPE = U
NORAD_CAT_ID   = 66174
ELEMENT_SET_NO = 999
REV_AT_EPOCH   = 51
BSTAR          = .30360943E-3
MEAN_MOTION_DOT = .16291E-3
MEAN_MOTION_DDOT = 0

CCSDS_OMM_VERS = 2.0
CREATION_DATE  = 
ORIGINATOR     = 

OBJECT_NAME    = SZ-21 MODULE
OBJECT_ID      = 2025-246C
CENTER_NAME    = EARTH
REF_FRAME      = TEME
TIME_SYSTEM    = UTC
MEAN_ELEMENT_THEORY = SGP/SGP4

EPOCH          = 2025-12-30T10:20:13.692192
MEAN_MOTION    = 15.63504486
ECCENTRICITY   = .00032163
INCLINATION    = 41.4763
RA_OF_ASC_NODE = 268.0522
ARG_OF_PERICENTER = 359.0458
MEAN_ANOMALY   = 1.0376

EPHEMERIS_TYPE = 0
CLASSIFICATION_TYPE = U
NORAD_CAT_ID   = 66515
ELEMENT_SET_NO = 999
REV_AT_EPOCH   = 721
BSTAR          = .38780825E-3
MEAN_MOTION_DOT = .36786E-3
MEAN_MOTION_DDOT = 0

CCSDS_OMM_VERS = 2.0
CREATION_DATE  = 
ORIGINATOR     = 

OBJECT_NAME    = SHENZHOU-22
OBJECT_ID      = 2025-272A
CENTER_NAME    = EARTH
REF_FRAME      = TEME
TIME_SYSTEM    = UTC
MEAN_ELEMENT_THEORY = SGP/SGP4

EPOCH          = 2025-12-30T03:11:40.380000
MEAN_MOTION    = 15.59892918
ECCENTRICITY   = .0009498
INCLINATION    = 41.4672
RA_OF_ASC_NODE = 271.0575
ARG_OF_PERICENTER = 180.1911
MEAN_ANOMALY   = 179.8925

EPHEMERIS_TYPE = 0
CLASSIFICATION_TYPE = U
NORAD_CAT_ID   = 66645
ELEMENT_SET_NO = 999
REV_AT_EPOCH   = 26598
BSTAR          = .31260929E-3
MEAN_MOTION_DOT = .25691E-3
MEAN_MOTION_DDOT = 0

