CYGNUS NG-23            
1 65616U 25208A   25364.53284236  .00016291  00000+0  30361-3 0  9998
2 65616  51.6331  54.3560 0007483 320.1003  39.9435 15.48944140   226
DRAGONFLY               
1 65729U 98067XH  25364.37696388  .00302916  00000+0  16178-2 0  9994
2 65729  51.6255  45.0298 0008679  20.0434 340.0906 15.78913616 15944
1998-067XK              
1 65731U 98067XK  25364.33056017  .00144563  00000+0  11867-2 0  9994
2 65731  51.6295  47.7574 0005208 354.7984   5.2958 15.69469801 15904
RSP-03                  
1 65732U 98067XL  25364.36010435  .00204382  00000+0  13918-2 0  9997
2 65732  51.6265  46.4360 0006355   1.6609 358.4410 15.73698576 15934
GHS-01                  
1 65733U 98067XM  25364.34851925  .00460338  00000+0  18874-2 0  9994
2 65733  51.6270  44.0965 0009807  24.2416 335.9046 15.84202469 15960
YOTSUBA-KULOVER         
1 65941U 98067XN  25364.51377662  .00098167  00000+0  10929-2 0  9995
2 65941  51.6297  50.4832 0003123  27.4443 332.6715 15.62050182 12631
BOTAN                   
1 65942U 98067XP  25364.53635657  .00167515  00000+0  15144-2 0  9997
2 65942  51.6282  49.1302 0004053  14.4152 345.6959 15.67032425 12650
E-KAGAKU-1              
1 65943U 98067XQ  25364.51378364  .00102622  00000+0  11400-2 0  9994
2 65943  51.6307  50.4889 0001868  10.3780 349.7252 15.62088967 12633
HRC MONOBLOCK CAMERA    
1 66052U 98067XR  25364.45566333  .00044662  00000+0  64636-3 0  9993
2 66052  51.6310  53.0923 0001640 279.1316  80.9489 15.55440623 11598
HTV-X1                  
1 66174U 25241A   25364.53284236  .00016291  00000+0  30361-3 0  9995
2 66174  51.6331  54.3560 0007483 320.1003  39.9435 15.48944140   518
SZ-21 MODULE            
1 66515U 25246C   25364.43071403  .00036786  00000+0  38781-3 0  9993
2 66515  41.4763 268.0522 0003216 359.0458   1.0376 15.63504486  7210
SHENZHOU-22             
1 66645U 25272A   25364.13310625  .00025691  00000+0  31261-3 0  9994
2 66645  41.4672 271.0575 0009498 180.1911 179.8925 15.59892918265989
